{
    "links": {
        "self": "http://www.neowsapp.com/rest/v1/neo/3725656?api_key=iIulBulltgU6a56xZRHN4H3l9WmuAYTsLGpBGhQ2"
    },
    "id": "3725656",
    "neo_reference_id": "3725656",
    "name": "(2015 PW56)",
    "designation": "2015 PW56",
    "nasa_jpl_url": "http://ssd.jpl.nasa.gov/sbdb.cgi?sstr=3725656",
    "absolute_magnitude_h": 23.2,
    "estimated_diameter": {
        "kilometers": {
            "estimated_diameter_min": 0.0608912622,
            "estimated_diameter_max": 0.1361570015
        },
        "meters": {
            "estimated_diameter_min": 60.8912622106,
            "estimated_diameter_max": 136.1570015386
        },
        "miles": {
            "estimated_diameter_min": 0.0378360645,
            "estimated_diameter_max": 0.0846040122
        },
        "feet": {
            "estimated_diameter_min": 199.7744887109,
            "estimated_diameter_max": 446.7093369279
        }
    },
    "is_potentially_hazardous_asteroid": false,
    "close_approach_data": [
        {
            "close_approach_date": "2015-08-05",
            "close_approach_date_full": "2015-Aug-05 08:36",
            "epoch_date_close_approach": 1438763760000,
            "relative_velocity": {
                "kilometers_per_second": "5.9631145265",
                "kilometers_per_hour": "21467.2122954105",
                "miles_per_hour": "13338.8908843344"
            },
            "miss_distance": {
                "astronomical": "0.226746665",
                "lunar": "88.204452685",
                "kilometers": "33920818.11360355",
                "miles": "21077419.00288699"
            },
            "orbiting_body": "Earth"
        }
    ],
    "orbital_data": {
        "orbit_id": "7",
        "orbit_determination_date": "2017-04-06 08:32:33",
        "first_observation_date": "2015-08-10",
        "last_observation_date": "2015-09-04",
        "data_arc_in_days": 25,
        "observations_used": 19,
        "orbit_uncertainty": "7",
        "minimum_orbit_intersection": ".221118",
        "jupiter_tisserand_invariant": "3.405",
        "epoch_osculation": "2459000.5",
        "eccentricity": ".4685271387662213",
        "semi_major_axis": "2.323734940373676",
        "inclination": "9.247265822094731",
        "ascending_node_longitude": "134.3052101344303",
        "orbital_period": "1293.833254147398",
        "perihelion_distance": "1.235002057509302",
        "perihelion_argument": "179.193064116186",
        "aphelion_distance": "3.412467823238051",
        "perihelion_time": "2458536.908636095102",
        "mean_anomaly": "128.9910353368846",
        "mean_motion": ".2782429643433694",
        "equinox": "J2000",
        "orbit_class": {
            "orbit_class_type": "AMO",
            "orbit_class_description": "Near-Earth asteroid orbits similar to that of 1221 Amor",
            "orbit_class_range": "1.017 AU < q (perihelion) < 1.3 AU"
        }
    },
    "is_sentry_object": false
}